{
  "links" : {
    "next" : "https://api.nasa.gov/neo/rest/v1/feed?start_date=2006-03-09&end_date=2006-03-09&detailed=true&api_key=t0TVs3DtDT2H8Oy2Zy8m2eVrNsAVKAexjcZXUckd",
    "prev" : "https://api.nasa.gov/neo/rest/v1/feed?start_date=2006-03-07&end_date=2006-03-07&detailed=true&api_key=t0TVs3DtDT2H8Oy2Zy8m2eVrNsAVKAexjcZXUckd",
    "self" : "https://api.nasa.gov/neo/rest/v1/feed?start_date=2006-03-08&end_date=2006-03-08&detailed=true&api_key=t0TVs3DtDT2H8Oy2Zy8m2eVrNsAVKAexjcZXUckd"
  },
  "element_count" : 3,
  "near_earth_objects" : {
    "2006-03-08" : [ {
      "links" : {
        "self" : "https://api.nasa.gov/neo/rest/v1/neo/3324657?api_key=t0TVs3DtDT2H8Oy2Zy8m2eVrNsAVKAexjcZXUckd"
      },
      "neo_reference_id" : "3324657",
      "name" : "(2006 DO63)",
      "nasa_jpl_url" : "http://ssd.jpl.nasa.gov/sbdb.cgi?sstr=3324657",
      "absolute_magnitude_h" : 25.8,
      "estimated_diameter" : {
        "kilometers" : {
          "estimated_diameter_min" : 0.0183888672,
          "estimated_diameter_max" : 0.0411187571
        },
        "meters" : {
          "estimated_diameter_min" : 18.388867207,
          "estimated_diameter_max" : 41.1187571041
        },
        "miles" : {
          "estimated_diameter_min" : 0.0114263088,
          "estimated_diameter_max" : 0.0255500032
        },
        "feet" : {
          "estimated_diameter_min" : 60.3309310875,
          "estimated_diameter_max" : 134.9040630575
        }
      },
      "is_potentially_hazardous_asteroid" : false,
      "close_approach_data" : [ {
        "close_approach_date" : "2006-03-08",
        "epoch_date_close_approach" : 1141804800000,
        "relative_velocity" : {
          "kilometers_per_second" : "11.4839184727",
          "kilometers_per_hour" : "41342.1065016829",
          "miles_per_hour" : "25688.3772315596"
        },
        "miss_distance" : {
          "astronomical" : "0.0331711763",
          "lunar" : "12.9035873413",
          "kilometers" : "4962337.5",
          "miles" : "3083453.5"
        },
        "orbiting_body" : "Earth"
      } ],
      "orbital_data" : {
        "orbit_id" : "9",
        "orbit_determination_date" : "2017-04-06 09:09:00",
        "orbit_uncertainty" : "8",
        "minimum_orbit_intersection" : ".0172848",
        "jupiter_tisserand_invariant" : "4.536",
        "epoch_osculation" : "2453794.5",
        "eccentricity" : ".4056587620891834",
        "semi_major_axis" : "1.455425281721034",
        "inclination" : "6.230831015011907",
        "ascending_node_longitude" : "161.2770196052083",
        "orbital_period" : "641.332574071877",
        "perihelion_distance" : ".8650192636247781",
        "perihelion_argument" : "66.310106106831",
        "aphelion_distance" : "2.045831299817289",
        "perihelion_time" : "2453847.421974948200",
        "mean_anomaly" : "330.293242926381",
        "mean_motion" : ".5613312258791539",
        "equinox" : "J2000"
      }
    }, {
      "links" : {
        "self" : "https://api.nasa.gov/neo/rest/v1/neo/3325502?api_key=t0TVs3DtDT2H8Oy2Zy8m2eVrNsAVKAexjcZXUckd"
      },
      "neo_reference_id" : "3325502",
      "name" : "(2006 EC)",
      "nasa_jpl_url" : "http://ssd.jpl.nasa.gov/sbdb.cgi?sstr=3325502",
      "absolute_magnitude_h" : 26.6,
      "estimated_diameter" : {
        "kilometers" : {
          "estimated_diameter_min" : 0.0127219879,
          "estimated_diameter_max" : 0.0284472297
        },
        "meters" : {
          "estimated_diameter_min" : 12.7219878539,
          "estimated_diameter_max" : 28.4472296503
        },
        "miles" : {
          "estimated_diameter_min" : 0.0079050743,
          "estimated_diameter_max" : 0.0176762835
        },
        "feet" : {
          "estimated_diameter_min" : 41.7388066307,
          "estimated_diameter_max" : 93.330808926
        }
      },
      "is_potentially_hazardous_asteroid" : false,
      "close_approach_data" : [ {
        "close_approach_date" : "2006-03-08",
        "epoch_date_close_approach" : 1141804800000,
        "relative_velocity" : {
          "kilometers_per_second" : "7.6481937469",
          "kilometers_per_hour" : "27533.4974888296",
          "miles_per_hour" : "17108.2445924342"
        },
        "miss_distance" : {
          "astronomical" : "0.0018084333",
          "lunar" : "0.7034805417",
          "kilometers" : "270537.78125",
          "miles" : "168104.375"
        },
        "orbiting_body" : "Earth"
      } ],
      "orbital_data" : {
        "orbit_id" : "11",
        "orbit_determination_date" : "2017-04-06 09:08:58",
        "orbit_uncertainty" : "6",
        "minimum_orbit_intersection" : ".00198323",
        "jupiter_tisserand_invariant" : "5.479",
        "epoch_osculation" : "2458000.5",
        "eccentricity" : ".2173599795229156",
        "semi_major_axis" : "1.137455131243265",
        "inclination" : "7.583000560688578",
        "ascending_node_longitude" : "347.4758044776841",
        "orbital_period" : "443.0980494078051",
        "perihelion_distance" : ".8902179072079938",
        "perihelion_argument" : "245.6715936196408",
        "aphelion_distance" : "1.384692355278536",
        "perihelion_time" : "2457845.849148406030",
        "mean_anomaly" : "125.6478259117529",
        "mean_motion" : ".8124612610710777",
        "equinox" : "J2000"
      }
    }, {
      "links" : {
        "self" : "https://api.nasa.gov/neo/rest/v1/neo/3685808?api_key=t0TVs3DtDT2H8Oy2Zy8m2eVrNsAVKAexjcZXUckd"
      },
      "neo_reference_id" : "3685808",
      "name" : "(2014 QX432)",
      "nasa_jpl_url" : "http://ssd.jpl.nasa.gov/sbdb.cgi?sstr=3685808",
      "absolute_magnitude_h" : 19.7,
      "estimated_diameter" : {
        "kilometers" : {
          "estimated_diameter_min" : 0.3051792326,
          "estimated_diameter_max" : 0.6824015094
        },
        "meters" : {
          "estimated_diameter_min" : 305.1792325939,
          "estimated_diameter_max" : 682.4015094011
        },
        "miles" : {
          "estimated_diameter_min" : 0.1896295249,
          "estimated_diameter_max" : 0.4240245083
        },
        "feet" : {
          "estimated_diameter_min" : 1001.2442334633,
          "estimated_diameter_max" : 2238.8501681036
        }
      },
      "is_potentially_hazardous_asteroid" : true,
      "close_approach_data" : [ {
        "close_approach_date" : "2006-03-08",
        "epoch_date_close_approach" : 1141804800000,
        "relative_velocity" : {
          "kilometers_per_second" : "19.6328445247",
          "kilometers_per_hour" : "70678.2402888682",
          "miles_per_hour" : "43916.7099172692"
        },
        "miss_distance" : {
          "astronomical" : "0.4290256558",
          "lunar" : "166.8909759521",
          "kilometers" : "64181324",
          "miles" : "39880424"
        },
        "orbiting_body" : "Earth"
      } ],
      "orbital_data" : {
        "orbit_id" : "13",
        "orbit_determination_date" : "2017-07-26 06:19:13",
        "orbit_uncertainty" : "2",
        "minimum_orbit_intersection" : ".0189675",
        "jupiter_tisserand_invariant" : "4.632",
        "epoch_osculation" : "2458000.5",
        "eccentricity" : ".5869499138225225",
        "semi_major_axis" : "1.36645074089515",
        "inclination" : "6.439916738771519",
        "ascending_node_longitude" : "111.8284333226164",
        "orbital_period" : "583.4308607779016",
        "perihelion_distance" : ".5644125962840197",
        "perihelion_argument" : "68.62105278617175",
        "aphelion_distance" : "2.16848888550628",
        "perihelion_time" : "2457892.399489567289",
        "mean_anomaly" : "66.70230591485732",
        "mean_motion" : ".6170396943349961",
        "equinox" : "J2000"
      }
    } ]
  }
}